KUIPER-00165            
1 65778U 25217S   26062.44482291  .00013430  00000+0  17849-2 0  9991
2 65778  51.9005  63.2119 0001012 110.7749 249.3322 14.79986682 24056
KUIPER-00166            
1 65779U 25217T   26062.35707274  .00024604  00000+0  32445-2 0  9997
2 65779  51.9037  51.1221 0000802 110.8376 249.2673 14.79934324 24217
KUIPER-00167            
1 65780U 25217U   26062.29903812  .00004986  00000+0  68343-3 0  9996
2 65780  51.8969  73.8272 0000342  27.1073 332.9907 14.79876642 23893
KUIPER-00168            
1 65781U 25217V   26062.18272969  .00000345  00000+0  74253-4 0  9990
2 65781  51.9013  56.8725 0000894  82.0309 278.0755 14.79931355 24124
KUIPER-00169            
1 65782U 25217W   26062.38045733  .00005297  00000+0  72585-3 0  9996
2 65782  51.9012  61.0064 0000729  93.2359 266.8687 14.79784099 24089
KUIPER-00170            
1 65783U 25217X   26062.37417924  .00003799  00000+0  52721-3 0  9996
2 65783  51.8987  66.0117 0000771  81.6557 278.4493 14.79924611 24015
KUIPER-00172            
1 65785U 25217Z   26062.75002315 -.01524456  00000+0 -16385+0 0  9997
2 65785  51.8957  45.2420 0002049 295.8664  98.3418 14.91461788  2824
KUIPER-00173            
1 65786U 25217AA  26062.41581167  .00001493  00000+0  21324-3 0  9999
2 65786  51.9016  60.1713 0001408 131.7345 228.3739 14.82255953 24094
KUIPER-00174            
1 65787U 25217AB  26062.95936519  .00008022  00000+0  10804-2 0  9999
2 65787  51.9035  53.4639 0001105  62.5715 297.5360 14.79916925 24237
KUIPER-00176            
1 65788U 25217AC  26062.40276198  .00005355  00000+0  73000-3 0  9994
2 65788  51.8995  70.8988 0000884  62.4412 297.6641 14.79983666 23944
KUIPER-00101            
1 65947U 25228A   26062.34750578 -.00002486  00000+0 -29717-3 0  9995
2 65947  51.8999  28.6221 0000716 113.0169 247.0869 14.79931306 22294
KUIPER-00113            
1 65948U 25228B   26062.85935204  .00007297  00000+0  98441-3 0  9996
2 65948  51.8996  21.3760 0000789  91.1058 268.9995 14.79966734 22434
KUIPER-00117            
1 65949U 25228C   26062.14763686 -.00000034  00000+0  24522-4 0  9995
2 65949  51.8993  27.0265 0000991  79.1139 280.9935 14.79940698 22299
KUIPER-00121            
1 65950U 25228D   26062.86202830  .00007182  00000+0  97002-3 0  9997
2 65950  51.9010  18.8615 0001325  99.9552 260.1560 14.79938303 22474
KUIPER-00122            
1 65951U 25228E   26062.10719678 -.00013237  00000+0 -17158-2 0  9991
2 65951  51.9015  32.1635 0000973  84.7942 275.3132 14.79810679 22225
KUIPER-00123            
1 65952U 25228F   26062.20993577  .00006203  00000+0  84191-3 0  9990
2 65952  51.8995  31.7465 0001031  91.7301 268.3779 14.79937341 22237
KUIPER-00124            
1 65953U 25228G   26062.08279391 -.00000146  00000+0  98690-5 0  9990
2 65953  51.8989  24.7939 0001077 102.0648 258.0435 14.79938137 22328
